COSMOS-482 (VENERA 8)
1  6073U 72023E   25121.89946964  .01092226  11747-4  14743-3 0  9994
2  6073  51.9527 286.4785 0143025  71.9466  81.9493 16.10576565749999
NOAA 2 (ITOS-D)
1  6235U 72082A   25121.99356245 -.00000032  00000-0  89039-4 0  9998
2  6235 102.0228 130.7552 0003756 229.7327 145.2317 12.53199605403662
SOLRAD-7B
1  1291U 65016D   25121.87560444  .00000076  00000-0  95198-4 0  9999
2  1291  70.0813  30.6757 0023278 297.5880  62.2861 13.94907325 59836
OSCAR-7 (AO-7)
1  7530U 74089B   25121.93272903 -.00000048  00000-0 -89338-5 0  9999
2  7530 101.9944 125.7842 0012131 194.1881 177.9886 12.53688720309228
UOSAT-2 (UO-11)
1 14781U 84021B   25121.90211967  .00002573  00000-0  27730-3 0  9991
2 14781  97.7516  89.0471 0009440 101.9112 258.3164 14.89258404216888
FLTSATCOM-7 (USA-20)
1 17181U 86096A   25121.54828784 -.00000112  00000-0  00000-0 0  9999
2 17181  13.0366 342.6906 0040269 321.9178 214.5001  0.98926935147894
FLTSATCOM-8 (USA-46)
1 20253U 89077A   25121.98146146 -.00000378  00000-0  00000+0 0  9991
2 20253  12.5385 353.6295 0005500  31.7908 313.4340  1.00282687256486
OSCAR 16 (PACSAT)
1 20439U 90005D   25121.81688542  .00000269  00000-0  11353-3 0  9998
2 20439  98.8911 141.8826 0010594   4.5276 100.7808 14.33754551842982
LUSAT (LO-19)
1 20442U 90005G   25121.93944703  .00000286  00000-0  11926-3 0  9994
2 20442  98.8994 127.0336 0011106 337.1996  22.8693 14.33937942843516
UFO 2 (USA 95)
1 22787U 93056A   25121.87131626  .00000115  00000-0  00000-0 0  9991
2 22787  11.7560   5.7467 0004013 345.9617 210.6333  1.00270799114425
EYESAT-1 (AO-27)
1 22825U 93061C   25121.75564736  .00000219  00000-0  10093-3 0  9990
2 22825  98.7394 183.1121 0007669 220.5808 139.4803 14.30784816648166
ITAMSAT (IO-26) 
1 22826U 93061D   25121.71573129  .00000251  00000-0  11213-3 0  9994
2 22826  98.7342 182.9525 0008458 204.3173 155.7611 14.31196334648450
UFO 3 (USA 104)
1 23132U 94035A   25121.86617022  .00000087  00000-0  00000-0 0  9990
2 23132  12.1852   8.1336 0001540 310.7049 234.4886  1.00206377127570
RADIO ROSTO (RS-15)
1 23439U 94085A   25121.77547771 -.00000030  00000-0  35180-3 0  9997
2 23439  64.8161 248.5562 0145681  81.9702 279.7722 11.27581471249517
UFO 4 (USA 108)
1 23467U 95003A   25121.49085991 -.00000031  00000-0  00000-0 0  9990
2 23467   9.7131  14.5216 0002613  28.0603 166.1978  1.00267623110822
UFO 7 (USA 127)
1 23967U 96042A   25121.02243360 -.00000236  00000-0  00000-0 0  9991
2 23967  10.7219  19.1989 0006159  93.2096  85.1295  1.00301273105357
JAS-2 (FO-29)
1 24278U 96046B   25121.93701848  .00000040  00000-0  74033-4 0  9994
2 24278  98.5797  20.9091 0350947  82.7321 281.3564 13.53245747417790
UFO 8 (USA 138)
1 25258U 98016A   25121.75753965 -.00000161  00000-0  00000-0 0  9993
2 25258  10.6343  25.1218 0004421 256.8248 287.8246  1.00398871 99738
TECHSAT-1B (GO-32)
1 25397U 98043D   25121.91449245  .00000181  00000-0  98532-4 0  9990
2 25397  98.9682 100.2320 0001055  16.1419 343.9793 14.24304081393001
ISS (ZARYA)
1 25544U 98067A   25122.16310700  .00011873  00000-0  22114-3 0  9993
2 25544  51.6358 175.0201 0002090  83.0482 309.0274 15.49285613508026
UFO 10 (USA 146)
1 25967U 99063A   25121.07336468 -.00000197  00000-0  00000-0 0  9992
2 25967   9.7008  29.2743 0001648 318.7850 234.5914  1.00268759 93214
PCSAT (NO-44)
1 26931U 01043C   25121.66578443  .00000374  00000-0  17102-3 0  9991
2 26931  67.0512 228.4499 0005689 272.4778  87.5672 14.31713874231535
PROBA-1
1 26958U 01049B   25121.93626761  .00004327  00000-0  29781-3 0  9991
2 26958  97.9469 112.1401 0059208  71.9984 288.7681 15.05016743281775
SAUDISAT-1C (SO-50)
1 27607U 02058C   25121.94308552  .00002002  00000-0  26735-3 0  9994
2 27607  64.5544 319.7889 0051734 343.0799  16.8578 14.81513586203712
CUTE-1 (CO-55)
1 27844U 03031E   25121.96352277  .00000599  00000-0  28016-3 0  9997
2 27844  98.6774 130.7341 0008541 304.0227  56.0140 14.23963164133173
CUBESAT XI-IV (CO-57)
1 27848U 03031J   25121.96425368  .00000506  00000-0  24265-3 0  9993
2 27848  98.6799 130.7692 0008728 323.0265  37.0311 14.23302391132923
MOZHAYETS-4 (RS-22)
1 27939U 03042A   25122.22531307  .00002560  00000-0  41345-3 0  9997
2 27939  98.3256 290.7591 0012495 128.4424  44.2561 14.72246875155182
UFO 11 (USA 174)
1 28117U 03057A   25121.82860778 -.00000112  00000-0  00000+0 0  9995
2 28117   8.5430  35.6557 0002330 356.4628 201.6797  1.00272345 78296
CUBESAT XI-V (CO-58)
1 28895U 05043F   25121.81259494  .00003125  00000-0  51834-3 0  9992
2 28895  98.2444 265.6936 0015686  72.5785 287.7134 14.70869812 41241
CAPE-1
1 31130U 07012P   25121.88293173  .00002626  00000-0  49392-3 0  9996
2 31130  98.3952  82.2352 0084303 274.6792  84.4785 14.63279173958161
CUTE-1.7+APD II (CO-65)
1 32785U 08021C   25121.89023544  .00008308  00000-0  60501-3 0  9996
2 32785  97.7827  92.7872 0009545 355.9846   4.1301 15.03996915923264
SEEDS-II (CO-66)
1 32791U 08021J   25121.88417970  .00020958  00000-0  10410-2 0  9990
2 32791  97.7269 101.0971 0002149 339.5968  20.5179 15.17697351924703
YUBILEINY (RS-30)
1 32953U 08025A   25121.85251074  .00000035  00000-0  18197-3 0  9997
2 32953  82.5017 251.2593 0020431 129.5345 230.7544 12.43163366768723
KKS-1 (KISEKI)
1 33499U 09002H   25121.68950892  .00002720  00000-0  35384-3 0  9994
2 33499  98.1218  33.2278 0008106 172.4049 187.7287 14.81488622875235
SWISSCUBE
1 35932U 09051B   25121.66931929  .00002096  00000-0  43488-3 0  9990
2 35932  98.4336  17.1706 0008167  57.8393 302.3599 14.61231215829035
BEESAT
1 35933U 09051C   25121.62828021  .00001768  00000-0  37312-3 0  9999
2 35933  98.4273  17.5516 0006691  69.5871 290.6047 14.60660960829084
ITUPSAT-1
1 35935U 09051E   25121.68176450  .00001613  00000-0  35023-3 0  9995
2 35935  98.4366  17.1787 0008949  75.8408 284.3785 14.59465058828693
PROBA-2
1 36037U 09059B   25121.77675373  .00000450  00000-0  11604-3 0  9992
2 36037  98.2377 306.1004 0014457 109.6915 250.5843 14.54533260821712
XIWANG-1 (HOPE-1)
1 36122U 09072B   25121.85821333 -.00000024  00000-0  53224-4 0  9993
2 36122 100.3461  78.4570 0008155  93.3010 266.9036 13.16423639738881
EWS-G2 (GOES-15)
1 36411U 10008A   25121.89938058  .00000028  00000-0  00000-0 0  9995
2 36411   0.2098  85.9460 0001903 183.9779 335.4294  1.00275203 55511
TISAT-1
1 36799U 10035E   25121.71990086  .00019212  00000-0  10124-2 0  9999
2 36799  98.0604  33.3820 0002110 193.2250 166.8926 15.15642447805086
HORYU-2
1 38340U 12025D   25121.76092530  .00005785  00000-0  64617-3 0  9993
2 38340  98.1737 235.3019 0009946  88.4220 271.8134 14.87348838687494
AAUSAT-3
1 39087U 13009B   25122.19081843  .00001394  00000-0  46375-3 0  9991
2 39087  98.3676 310.6566 0011777  12.8216 347.3270 14.39164304638365
STRAND-1
1 39090U 13009E   25121.81670544  .00000586  00000-0  21301-3 0  9999
2 39090  98.3828 307.5310 0009219  28.1717 331.9967 14.36785791637989
CUBEBUG-1 (CAPITAN BETO)
1 39153U 13018D   25122.11396750  .00007742  00000-0  74096-3 0  9997
2 39153  98.1135 261.3463 0013478  69.2040 291.0621 14.93423033649719
PROBA-V
1 39159U 13021A   25122.21747797  .00000160  00000-0  88495-4 0  9995
2 39159  98.3205 117.1653 0002976 251.8703 108.2152 14.23475727622641
ZACUBE-1 (TSHEPISOSAT)
1 39417U 13066B   25121.87082069  .00006931  00000-0  60689-3 0  9992
2 39417  97.7771  79.1099 0044444 179.3709 180.7576 14.96254033619125
TRITON-1
1 39427U 13066M   25121.77114618  .00004595  00000-0  58492-3 0  9991
2 39427  97.8381  36.5338 0096084 131.7097 229.2385 14.78799276613221
DELFI-N3XT
1 39428U 13066N   25121.76274413  .00010650  00000-0  10932-2 0  9996
2 39428  97.8355  39.8662 0087159 127.5431 233.3745 14.87753732613309
GOMX-1
1 39430U 13066Q   25122.16792585  .00003276  00000-0  51534-3 0  9999
2 39430  97.6878 343.1833 0131789 315.9166  43.1591 14.67491072609774
HUMSAT-D
1 39433U 13066T   25121.95152487  .00046709  00000-0  14660-2 0  9995
2 39433  97.5039 117.1964 0008500 244.5911 115.4451 15.32846872624330
VELOX-PII
1 39438U 13066Y   25121.81795306  .00005242  00000-0  53861-3 0  9992
2 39438  97.8279  70.1667 0054702 263.4887  96.0101 14.89687637616520
CUBEBUG-2 (LO-74)
1 39440U 13066AA  25121.85647305  .00008239  00000-0  83821-3 0  9992
2 39440  97.8476  66.6991 0060930 309.1141  50.4668 14.89630342615671
FUNCUBE-1 (AO-73)
1 39444U 13066AE  25121.84209076  .00011938  00000-0  90478-3 0  9990
2 39444  97.7776  83.6306 0041815 155.9243 204.3948 15.01709952617770
UWE-3
1 39446U 13066AG  25121.85908599  .00006737  00000-0  64355-3 0  9995
2 39446  97.8210  73.0148 0051877 246.8869 112.6877 14.92584355616134
UNISAT-6
1 40012U 14033C   25121.94034091  .00004410  00000-0  51342-3 0  9996
2 40012  97.7384 279.2250 0047369 343.2962  16.6690 14.84967894585064
DUCHIFAT-1
1 40021U 14033M   25121.94710645  .00034065  00000-0  12890-2 0  9995
2 40021  98.0980 132.9772 0011502  94.3990 265.8561 15.26808211592426
FUNCUBE-3 (EO-79)
1 40025U 14033R   25121.91360971  .00011635  00000-0  72215-3 0  9995
2 40025  98.0818 102.3813 0010602 175.0276 185.1059 15.09833975591310
SMAP
1 40376U 15003A   25121.93417424  .00000961  00000-0  19515-3 0  9994
2 40376  98.1291 129.8271 0001293 102.7813 257.3533 14.63358000547474
LILACSAT-2
1 40908U 15049K   25122.03956468  .00017267  00000-0  46381-3 0  9991
2 40908  97.5089 141.4767 0007451 304.3618  55.6921 15.37966321532307
LAPAN-A2 (IO-86)
1 40931U 15052B   25038.81889873  .00001817  00000-0  15548-3 0  9993
2 40931   6.0001 108.1159 0012838 187.7041 172.2889 14.78568669506492
LQSAT
1 40958U 15057A   25122.02148016  .00001198  00000-0  18051-3 0  9995
2 40958  97.6569 131.4248 0017721 162.1359 198.0478 14.76005783514624
PRATHAM
1 41783U 16059A   25121.75277518  .00001507  00000-0  27901-3 0  9992
2 41783  97.8254 132.2347 0033292  88.7062 271.7956 14.66337205459206
